[{"OBJECT_NAME":"STARLINK-4349","OBJECT_ID":"2022-077B","EPOCH":"2026-03-10T00:00:02.999808","MEAN_MOTION":15.82599286,"ECCENTRICITY":0.00011323,"INCLINATION":97.6018,"RA_OF_ASC_NODE":259.1547,"ARG_OF_PERICENTER":279.8477,"MEAN_ANOMALY":6.0284,"EPHEMERIS_TYPE":0,"CLASSIFICATION_TYPE":"U","NORAD_CAT_ID":53044,"ELEMENT_SET_NO":999,"REV_AT_EPOCH":598,"BSTAR":0.0011162879,"MEAN_MOTION_DOT":0.00238434,"MEAN_MOTION_DDOT":0},{"OBJECT_NAME":"STARLINK-36714","OBJECT_ID":"2026-036W","EPOCH":"2026-03-09T21:16:14.007072","MEAN_MOTION":15.82116801,"ECCENTRICITY":0.00019285,"INCLINATION":42.9993,"RA_OF_ASC_NODE":248.3898,"ARG_OF_PERICENTER":254.7583,"MEAN_ANOMALY":105.3076,"EPHEMERIS_TYPE":0,"CLASSIFICATION_TYPE":"U","NORAD_CAT_ID":67924,"ELEMENT_SET_NO":999,"REV_AT_EPOCH":370,"BSTAR":0.0014691132,"MEAN_MOTION_DOT":0.00322113,"MEAN_MOTION_DDOT":0}]
